[{"OBJECT_NAME":"STARLINK-32858","OBJECT_ID":"2025-029Q","EPOCH":"2026-03-09T18:19:12.890496","MEAN_MOTION":15.30202815,"ECCENTRICITY":0.00010512,"INCLINATION":53.159,"RA_OF_ASC_NODE":231.7783,"ARG_OF_PERICENTER":98.2042,"MEAN_ANOMALY":261.9078,"EPHEMERIS_TYPE":0,"CLASSIFICATION_TYPE":"U","NORAD_CAT_ID":62962,"ELEMENT_SET_NO":999,"REV_AT_EPOCH":6131,"BSTAR":0.00099017252,"MEAN_MOTION_DOT":0.00029084,"MEAN_MOTION_DDOT":0},{"OBJECT_NAME":"D-SAT","OBJECT_ID":"2017-036AF","EPOCH":"2026-03-09T22:00:14.910336","MEAN_MOTION":15.15529522,"ECCENTRICITY":0.00852401,"INCLINATION":97.5487,"RA_OF_ASC_NODE":48.252,"ARG_OF_PERICENTER":144.4633,"MEAN_ANOMALY":216.2319,"EPHEMERIS_TYPE":0,"CLASSIFICATION_TYPE":"U","NORAD_CAT_ID":42794,"ELEMENT_SET_NO":999,"REV_AT_EPOCH":47581,"BSTAR":0.00038655305,"MEAN_MOTION_DOT":7.964e-5,"MEAN_MOTION_DDOT":0}]
